{"type": "FeatureCollection", "features": [ {"type": "Feature", "properties": {"norad_id": 34031, "name": "COSMOS 2251 DEB", "group": "cosmos-2251-debris", "lat": 27.033064635337062, "lon": -48.08565673600546, "alt_km": 698.1784658955839, "timestamp": "2025-12-10T07:43:55.172764+00:00", "meta": {"OBJECT_NAME": "COSMOS 2251 DEB", "OBJECT_ID": "1993-036HS", "EPOCH": "2025-12-08T21:03:52.943040", "MEAN_MOTION": 14.59609955, "ECCENTRICITY": 0.0023021, "INCLINATION": 74.0126, "RA_OF_ASC_NODE": 143.0836, "ARG_OF_PERICENTER": 263.6236, "MEAN_ANOMALY": 221.2597, "EPHEMERIS_TYPE": 0, "CLASSIFICATION_TYPE": "U", "NORAD_CAT_ID": 34031, "ELEMENT_SET_NO": 999, "REV_AT_EPOCH": 88509, "BSTAR": 0.0016262, "MEAN_MOTION_DOT": 7.745e-05, "MEAN_MOTION_DDOT": 0}, "tle": {"line1": "1 34031U 93036HS  25342.87769610  .00007745  00000+0  16262-2 0  9993", "line2": "2 34031  74.0126 143.0836 0023021 263.6236 221.2597 14.59609955885095"}}, "geometry": {"type": "Point", "coordinates": [-48.08565673600546, 27.033064635337062]}}, {"type": "Feature", "properties": {"norad_id": 34035, "name": "COSMOS 2251 DEB", "group": "cosmos-2251-debris", "lat": 21.600197838435196, "lon": 0.18088050499703573, "alt_km": 690.7564752327007, "timestamp": "2025-12-10T07:43:55.172774+00:00", "meta": {"OBJECT_NAME": "COSMOS 2251 DEB", "OBJECT_ID": "1993-036HW", "EPOCH": "2025-12-09T10:42:04.965984", "MEAN_MOTION": 14.51873839, "ECCENTRICITY": 0.00444917, "INCLINATION": 74.0659, "RA_OF_ASC_NODE": 355.3329, "ARG_OF_PERICENTER": 357.5517, "MEAN_ANOMALY": 126.6094, "EPHEMERIS_TYPE": 0, "CLASSIFICATION_TYPE": "U", "NORAD_CAT_ID": 34035, "ELEMENT_SET_NO": 999, "REV_AT_EPOCH": 87918, "BSTAR": 0.0023465551, "MEAN_MOTION_DOT": 9.562e-05, "MEAN_MOTION_DDOT": 0}, "tle": {"line1": "1 34035U 93036HW  25343.44589081  .00009562  00000+0  23466-2 0  9996", "line2": "2 34035  74.0659 355.3329 0044491 357.5517 126.6094 14.51873839879183"}}, "geometry": {"type": "Point", "coordinates": [0.18088050499703573, 21.600197838435196]}}, {"type": "Feature", "properties": {"norad_id": 34036, "name": "COSMOS 2251 DEB", "group": "cosmos-2251-debris", "lat": -73.99444975071002, "lon": 61.55704527810217, "alt_km": 589.2148379126711, "timestamp": "2025-12-10T07:43:55.172784+00:00", "meta": {"OBJECT_NAME": "COSMOS 2251 DEB", "OBJECT_ID": "1993-036HX", "EPOCH": "2025-12-08T22:24:02.971008", "MEAN_MOTION": 14.94473801, "ECCENTRICITY": 0.0013483, "INCLINATION": 74.0203, "RA_OF_ASC_NODE": 156.9466, "ARG_OF_PERICENTER": 190.5423, "MEAN_ANOMALY": 169.5481, "EPHEMERIS_TYPE": 0, "CLASSIFICATION_TYPE": "U", "NORAD_CAT_ID": 34036, "ELEMENT_SET_NO": 999, "REV_AT_EPOCH": 88513, "BSTAR": 0.0043012, "MEAN_MOTION_DOT": 0.00046776, "MEAN_MOTION_DDOT": 0}, "tle": {"line1": "1 34036U 93036HX  25342.93336772  .00046776  00000+0  43012-2 0  9994", "line2": "2 34036  74.0203 156.9466 0013483 190.5423 169.5481 14.94473801885134"}}, "geometry": {"type": "Point", "coordinates": [61.55704527810217, -73.99444975071002]}}, {"type": "Feature", "properties": {"norad_id": 34037, "name": "COSMOS 2251 DEB", "group": "cosmos-2251-debris", "lat": 45.400682305317325, "lon": -141.9884625468681, "alt_km": 738.5381921092021, "timestamp": "2025-12-10T07:43:55.172794+00:00", "meta": {"OBJECT_NAME": "COSMOS 2251 DEB", "OBJECT_ID": "1993-036HY", "EPOCH": "2025-12-09T14:23:11.768928", "MEAN_MOTION": 14.34653174, "ECCENTRICITY": 0.0052088, "INCLINATION": 74.0522, "RA_OF_ASC_NODE": 56.1899, "ARG_OF_PERICENTER": 107.1564, "MEAN_ANOMALY": 253.5301, "EPHEMERIS_TYPE": 0, "CLASSIFICATION_TYPE": "U", "NORAD_CAT_ID": 34037, "ELEMENT_SET_NO": 999, "REV_AT_EPOCH": 87672, "BSTAR": 0.00082379, "MEAN_MOTION_DOT": 2.341e-05, "MEAN_MOTION_DDOT": 0}, "tle": {"line1": "1 34037U 93036HY  25343.59944177  .00002341  00000+0  82379-3 0  9992", "line2": "2 34037  74.0522  56.1899 0052088 107.1564 253.5301 14.34653174876721"}}, "geometry": {"type": "Point", "coordinates": [-141.9884625468681, 45.400682305317325]}}, {"type": "Feature", "properties": {"norad_id": 34040, "name": "COSMOS 2251 DEB", "group": "cosmos-2251-debris", "lat": -52.897532924279865, "lon": -87.78058529668228, "alt_km": 1223.5567098429092, "timestamp": "2025-12-10T07:43:55.172804+00:00", "meta": {"OBJECT_NAME": "COSMOS 2251 DEB", "OBJECT_ID": "1993-036JB", "EPOCH": "2025-12-09T16:32:34.897056", "MEAN_MOTION": 13.6836936, "ECCENTRICITY": 0.0342946, "INCLINATION": 73.9558, "RA_OF_ASC_NODE": 70.9034, "ARG_OF_PERICENTER": 24.9006, "MEAN_ANOMALY": 336.8223, "EPHEMERIS_TYPE": 0, "CLASSIFICATION_TYPE": "U", "NORAD_CAT_ID": 34040, "ELEMENT_SET_NO": 999, "REV_AT_EPOCH": 83558, "BSTAR": 0.00060408, "MEAN_MOTION_DOT": 7.57e-06, "MEAN_MOTION_DDOT": 0}, "tle": {"line1": "1 34040U 93036JB  25343.68929279  .00000757  00000+0  60408-3 0  9990", "line2": "2 34040  73.9558  70.9034 0342946  24.9006 336.8223 13.68369360835583"}}, "geometry": {"type": "Point", "coordinates": [-87.78058529668228, -52.897532924279865]}}, {"type": "Feature", "properties": {"norad_id": 34045, "name": "COSMOS 2251 DEB", "group": "cosmos-2251-debris", "lat": -1.8734413303532866, "lon": 135.79242233989876, "alt_km": 795.4795621619196, "timestamp": "2025-12-10T07:43:55.172814+00:00", "meta": {"OBJECT_NAME": "COSMOS 2251 DEB", "OBJECT_ID": "1993-036JG", "EPOCH": "2025-12-09T09:41:02.078592", "MEAN_MOTION": 14.34066163, "ECCENTRICITY": 0.00255458, "INCLINATION": 74.0387, "RA_OF_ASC_NODE": 316.9363, "ARG_OF_PERICENTER": 41.3757, "MEAN_ANOMALY": 79.4201, "EPHEMERIS_TYPE": 0, "CLASSIFICATION_TYPE": "U", "NORAD_CAT_ID": 34045, "ELEMENT_SET_NO": 999, "REV_AT_EPOCH": 87985, "BSTAR": 0.00018172692, "MEAN_MOTION_DOT": 4.84e-06, "MEAN_MOTION_DDOT": 0}, "tle": {"line1": "1 34045U 93036JG  25343.40349628  .00000484  00000+0  18173-3 0  9998", "line2": "2 34045  74.0387 316.9363 0025545  41.3757  79.4201 14.34066163879850"}}, "geometry": {"type": "Point", "coordinates": [135.79242233989876, -1.8734413303532866]}}, {"type": "Feature", "properties": {"norad_id": 34046, "name": "COSMOS 2251 DEB", "group": "cosmos-2251-debris", "lat": 58.26389916910859, "lon": 42.54975646424974, "alt_km": 688.7356493691404, "timestamp": "2025-12-10T07:43:55.172824+00:00", "meta": {"OBJECT_NAME": "COSMOS 2251 DEB", "OBJECT_ID": "1993-036JH", "EPOCH": "2025-12-09T20:38:45.816864", "MEAN_MOTION": 14.46435939, "ECCENTRICITY": 0.0074587, "INCLINATION": 74.0396, "RA_OF_ASC_NODE": 15.849, "ARG_OF_PERICENTER": 100.139, "MEAN_ANOMALY": 78.3347, "EPHEMERIS_TYPE": 0, "CLASSIFICATION_TYPE": "U", "NORAD_CAT_ID": 34046, "ELEMENT_SET_NO": 999, "REV_AT_EPOCH": 87784, "BSTAR": 0.0018161, "MEAN_MOTION_DOT": 6.737e-05, "MEAN_MOTION_DDOT": 0}, "tle": {"line1": "1 34046U 93036JH  25343.86025251  .00006737  00000+0  18161-2 0  9995", "line2": "2 34046  74.0396  15.8490 0074587 100.1390  78.3347 14.46435939877844"}}, "geometry": {"type": "Point", "coordinates": [42.54975646424974, 58.26389916910859]}}, {"type": "Feature", "properties": {"norad_id": 34050, "name": "COSMOS 2251 DEB", "group": "cosmos-2251-debris", "lat": 13.18893280399757, "lon": 18.03307192014631, "alt_km": 839.7468529669004, "timestamp": "2025-12-10T07:43:55.172834+00:00", "meta": {"OBJECT_NAME": "COSMOS 2251 DEB", "OBJECT_ID": "1993-036JM", "EPOCH": "2025-12-09T11:34:22.034208", "MEAN_MOTION": 13.96173291, "ECCENTRICITY": 0.02145718, "INCLINATION": 74.0886, "RA_OF_ASC_NODE": 15.6404, "ARG_OF_PERICENTER": 80.7963, "MEAN_ANOMALY": 35.0338, "EPHEMERIS_TYPE": 0, "CLASSIFICATION_TYPE": "U", "NORAD_CAT_ID": 34050, "ELEMENT_SET_NO": 999, "REV_AT_EPOCH": 85386, "BSTAR": 0.00085295944, "MEAN_MOTION_DOT": 1.401e-05, "MEAN_MOTION_DDOT": 0}, "tle": {"line1": "1 34050U 93036JM  25343.48219947  .00001401  00000+0  85296-3 0  9992", "line2": "2 34050  74.0886  15.6404 0214571  80.7963  35.0338 13.96173291853864"}}, "geometry": {"type": "Point", "coordinates": [18.03307192014631, 13.18893280399757]}}, {"type": "Feature", "properties": {"norad_id": 34053, "name": "COSMOS 2251 DEB", "group": "cosmos-2251-debris", "lat": 35.992287419326665, "lon": -101.77924164019679, "alt_km": 758.1715475519477, "timestamp": "2025-12-10T07:43:55.172844+00:00", "meta": {"OBJECT_NAME": "COSMOS 2251 DEB", "OBJECT_ID": "1993-036JQ", "EPOCH": "2025-12-09T17:19:26.874912", "MEAN_MOTION": 13.49154382, "ECCENTRICITY": 0.042204, "INCLINATION": 73.8443, "RA_OF_ASC_NODE": 247.034, "ARG_OF_PERICENTER": 36.0864, "MEAN_ANOMALY": 326.7953, "EPHEMERIS_TYPE": 0, "CLASSIFICATION_TYPE": "U", "NORAD_CAT_ID": 34053, "ELEMENT_SET_NO": 999, "REV_AT_EPOCH": 82643, "BSTAR": 0.0012257, "MEAN_MOTION_DOT": 1.314e-05, "MEAN_MOTION_DDOT": 0}, "tle": {"line1": "1 34053U 93036JQ  25343.72183883  .00001314  00000+0  12257-2 0  9990", "line2": "2 34053  73.8443 247.0340 0422040  36.0864 326.7953 13.49154382826433"}}, "geometry": {"type": "Point", "coordinates": [-101.77924164019679, 35.992287419326665]}}, {"type": "Feature", "properties": {"norad_id": 34056, "name": "COSMOS 2251 DEB", "group": "cosmos-2251-debris", "lat": -47.713839718504694, "lon": 62.38522292800068, "alt_km": 919.4991065424556, "timestamp": "2025-12-10T07:43:55.172854+00:00", "meta": {"OBJECT_NAME": "COSMOS 2251 DEB", "OBJECT_ID": "1993-036JT", "EPOCH": "2025-12-09T13:28:14.471040", "MEAN_MOTION": 14.20535185, "ECCENTRICITY": 0.0124291, "INCLINATION": 74.0595, "RA_OF_ASC_NODE": 82.0605, "ARG_OF_PERICENTER": 130.7228, "MEAN_ANOMALY": 249.4825, "EPHEMERIS_TYPE": 0, "CLASSIFICATION_TYPE": "U", "NORAD_CAT_ID": 34056, "ELEMENT_SET_NO": 999, "REV_AT_EPOCH": 86366, "BSTAR": 0.0016584, "MEAN_MOTION_DOT": 3.829e-05, "MEAN_MOTION_DDOT": 0}, "tle": {"line1": "1 34056U 93036JT  25343.56127860  .00003829  00000+0  16584-2 0  9998", "line2": "2 34056  74.0595  82.0605 0124291 130.7228 249.4825 14.20535185863660"}}, "geometry": {"type": "Point", "coordinates": [62.38522292800068, -47.713839718504694]}}]}